{"type":"FeatureCollection", "features": [
{"type":"Feature","geometry":{"type":"MultiPolygon","coordinates":[[[[93.25263307701472,24.02091553394412],[93.37802647600576,24.08827849917911],[93.7404439828457,24.005793235626058],[94.15638306242572,23.847696480482707],[94.25272189335786,24.11439883263758],[94.37505691676375,24.49383104498163],[94.62890209033097,24.75640913395885],[94.65336909501215,25.115220030414633],[94.67477772410817,25.44516108462685],[94.88274726389818,25.586760787059593],[95.01425741405951,25.89058150781334],[95.12282974733225,26.34837472053279],[95.23446045619012,26.682440037922657],[95.4959515687202,26.817165968392644],[95.68404166720676,26.90377549512335],[96.02199216936552,27.18010112802608],[96.60614190612864,27.365692971020454],[97.16429545041801,27.141608005034655],[96.86151626748844,27.631020568782777],[97.25298834238728,27.900472429722754],[97.37073580241545,28.21804069440201],[96.66272185445386,28.459997467490968],[96.31406703774708,28.383011221508117],[96.32630054008767,28.51086338001535],[96.58473327703261,28.717076538897985],[96.51897820195194,28.96728183834225],[96.08927643223876,29.45944391087547],[95.26963177541931,29.049767101895302],[94.6793652874859,29.327467489190585],[94.1869668182772,29.038769066754895],[93.96217621276887,28.712952275720333],[93.33979678119141,28.640090292915136],[93.22357850895582,28.34176858973159],[92.80152267820552,28.201543641691398],[92.73423841533227,27.97608392131305],[92.46815973942446,27.815237657384596],[91.8809516270762,27.721754358691136],[92.0139909650301,27.489420866350034],[92.11338817154738,26.892777459982945],[91.70356584313765,26.813041705214992],[90.95120544919143,26.777298091008667],[90.33647195657684,26.862532863346825],[89.85171942633102,26.69756233624072],[89.09018390562936,26.84053679306601],[88.86845167570618,26.96563944278814],[88.72164964761913,27.138858496249554],[88.79352147387009,27.416558883544837],[88.84398467102501,27.992580974023664],[88.6191940655167,28.09843706225008],[88.20478417372925,27.94171506149928],[88.11456209396741,27.61864777924982],[88.03810270433873,27.219969005410057],[88.18643392021836,26.771799073438466],[88.10997453058968,26.54771410745267],[87.65886413178046,26.37999407156146],[87.16187809919404,26.404739650627377],[87.0426014513733,26.560086896985627],[86.72300120272541,26.42536096651564],[86.028749944897,26.665942985212045],[85.81619284172928,26.599954774369603],[85.72902913755257,26.80891744203734],[85.25498092185475,26.753927266335303],[84.75799488926833,27.002757811387017],[84.6203679879367,27.339572637561986],[84.09738576287654,27.516915954201053],[83.8618908428202,27.335448374384335],[83.39548856608525,27.479797585602178],[83.29150379619024,27.335448374384335],[82.7318210641083,27.486671357564934],[82.20730965125556,27.844107499628166],[81.74243656231317,27.952713096639688],[81.05277286786249,28.40500729178893],[80.55272845969091,28.69095620543952],[80.31417516404943,28.62909225777473],[80.06491755385994,28.836680171049913],[80.07409268061538,28.94116150488378],[80.31876272742716,29.301347155732117],[80.24230333779848,29.44432161255741],[80.36616754899694,29.739893806955852],[80.92890865666402,30.174316195001936],[80.60777922022356,30.47126314379293],[80.21324876973958,30.583993003982105],[80.1016180608817,30.788831408472188],[79.40736680305328,31.073405567730223],[79.07247467647966,31.455587288859373],[78.88132620240796,31.28374298979051],[78.67335666261795,32.078351028684935],[78.3981028599547,32.52514620626397],[78.76052036679465,32.65437311916376],[79.11376274687915,32.38354650383123],[79.62604065739131,32.73960789150191],[79.37525385940924,33.08467124403219],[78.98836934788811,33.3335017890839],[79.10611680791628,33.61670119394938],[78.90426401929656,33.97551209040517],[79.35384523031321,34.03600128367741],[79.50676400957057,34.474547934901146],[80.06797592944508,34.713755199204996],[80.28970815936826,35.607345554363086],[79.21468914118901,35.97852924035183],[78.66418153586251,35.85755085380735],[77.61210033457186,35.468495360715444],[77.4301269872556,35.654087203709814],[76.93467014246175,35.7833141166096],[76.80010161671528,36.04726695997937],[76.35052040569865,36.359336207088425],[75.74802041542465,36.58754543625187],[75.34278565039264,37.05221242093408],[74.92072981964232,36.90511370093113],[74.70817271647459,37.07695799999999],[73.70043796116857,36.68377824373044],[73.1254633511609,36.686527752515545],[72.99089482541443,36.45694376895954],[72.59483518713786,36.26172864521732],[72.53366767543491,35.916665292687036],[73.08876284413914,35.88229643287326],[73.40683390499444,35.56335341380146],[73.78454328976014,35.52486029081003],[73.79524760430814,35.24441039472965],[74.14696079660007,35.0973116747267],[73.39001283927614,34.37419086424493],[73.48788085800085,34.144606880688926],[73.59798237906615,33.712934001427946],[73.688204458828,33.087420752817295],[74.4466816039445,32.78909904963375],[74.88861687599828,32.521021943086325],[75.20515874906101,32.417915363645],[75.34125646260006,32.34642813523236],[75.3794861574144,32.182832362518795],[74.91308388067945,32.04398216887115],[74.50326155226972,31.74016144811741],[74.61183388554245,31.499579429421004],[74.70817271647459,31.072030813337673],[74.21577424726588,30.691223846601076],[73.87935293289969,30.35990803799631],[73.96804582486897,30.19356275649765],[73.397658778239,29.94610696583849],[73.28296969379599,29.572173771064644],[72.94501919163721,29.02777103161449],[72.6621194500111,28.8930451011445],[72.29970194317116,28.668960135158706],[71.88070448800599,27.91421997364826],[70.75828064825696,27.721754358691136],[70.37139613673584,28.011827535519377],[70.02579969561421,27.56228284915523],[69.58692279914558,27.184225391203736],[69.5104634095169,26.742929231194896],[70.17413091149385,26.55183837063032],[70.14048878005723,26.155909105575663],[70.2689405546334,25.713238191174273],[70.67417531966541,25.676119822575398],[70.66500019290997,25.397044680887568],[71.11152302834147,24.675298624798344],[70.80568546982674,24.220254920863997],[70.57324892535556,24.42234381656898],[69.73219563944008,24.170763762732168],[68.76421976674098,24.2958664124543],[68.75351545219296,23.971424375812287],[68.33910556040551,23.96592535824208],[68.31005099234662,23.57824461954273],[68.63270961657965,23.169942564955115],[69.13122483695865,22.87437037055667],[69.64809031084852,22.79600937018127],[70.08085045614685,22.91973726551085],[70.31175781282548,23.215309459909292],[70.68946719759116,23.117701898038177],[70.49678953572688,22.933484809436358],[70.12519690213149,22.552677842699758],[69.75360426853611,22.41795191222977],[68.9660725553607,22.23373482362795],[69.39577432507387,21.888671471097677],[69.98145324962957,21.227414608280696],[70.2398859865745,20.99233160715449],[70.92037455426977,20.74212630771023],[70.99989231948359,20.74212630771023],[71.20633267148104,20.79574172901971],[71.6773225115937,20.99645587033214],[72.11314103247717,21.198544766037124],[72.3088770699266,21.6247186277279],[72.2446511826385,21.994527559324098],[72.37616133279984,22.314845332788455],[72.9465483794298,22.29284926250764],[72.86703061421596,22.21448826213224],[72.56730980687153,22.181494156711018],[72.54284280219036,21.733324224739427],[72.73552046405463,21.474870398939856],[72.75081234198038,21.062444081174586],[72.85479711187537,20.750374834065532],[72.88691005551942,20.461676411629846],[72.82880091940163,20.368193112936382],[72.77527934666155,20.13173535741763],[72.65447351104824,19.836163163019187],[72.79821716355015,19.304133213101988],[72.78445447341699,19.264265335718015],[72.8364468583645,18.864211807485702],[73.04441639815451,17.981619487468024],[73.28908644496629,17.115524220160957],[73.34719558108408,16.529878848934278],[73.51081867488945,15.93735970574484],[73.68514608324284,15.728397038077103],[73.93440369343234,15.432824843678661],[74.08579328489714,14.900794893761462],[74.26317906883567,14.719327313944746],[74.58277931748356,13.926094029442876],[74.77698616714041,13.07099679727622],[74.86873743469482,12.758927550167165],[75.1653998664541,12.089422160994877],[75.5538135657678,11.701741422295523],[75.8260089928459,11.122969823031596],[75.95751914300723,10.685797926200411],[76.21442269215959,10.193635853667189],[76.28017776724026,9.789458062257225],[76.47897218027482,9.12270218187004],[76.68235415668711,8.776264074947214],[77.09829323626714,8.292350528769298],[77.58916251768326,8.139752791196148],[77.9699302780341,8.334967914938375],[78.1427284985949,8.501313196437033],[78.1717830666538,8.883494917566184],[78.38434016982154,9.09383233962647],[79.06482873751679,9.298670744116555],[78.89967645591885,9.469140288792866],[79.1168211224643,9.849947255529464],[79.2269226435296,10.137270923572602],[79.47159269034137,10.315988994604218],[79.87223989199566,10.359981135165848],[79.84930207510706,10.827397628633154],[79.85083126289963,10.985494383776505],[79.81260156808528,11.424041035000243],[79.80801400470757,11.844715879120816],[79.84012694835161,11.956070984917439],[80.0083376055347,12.254392688100985],[80.24994927676134,12.857909866430829],[80.30041247391627,13.142484025688866],[80.26829953027223,13.56453362420199],[80.1306726289406,14.228539995804073],[80.19642770402126,14.585976137867307],[80.04045054917876,15.009400490772984],[80.12302668997773,15.368211387228769],[80.41815993394444,15.7985095120972],[80.83104063793931,15.70640096779629],[81.00842642187786,15.75451737153557],[81.21333758608272,16.208186321077367],[81.55281727603405,16.347036514725005],[81.71491118204686,16.311292900518684],[82.3143527967357,16.558748691177847],[82.31894036011343,17.05778453567382],[82.54220177782918,17.248875396238397],[83.1615228338215,17.559569888954897],[83.51935277728371,17.950000136439353],[83.66309642978564,18.07922704933914],[84.12796951872801,18.31293529607279],[84.70141494094311,19.118541370107618],[85.17240478105577,19.467728985815548],[85.67856594039765,19.745429373110827],[86.36975882264092,19.98188712862958],[86.7765227754655,20.33519900751516],[86.80557734352439,20.735252535747474],[86.97684637629264,20.860355185469604],[86.85909891626447,21.213667064355185],[87.14811540906088,21.50923925875363],[87.48453672342708,21.61509534698005],[87.78884509414922,21.698955364925652],[87.95552656353975,21.830931786610538],[88.18643392021836,22.104507910728167],[87.99834382173181,22.24473285876836],[88.08244915032336,22.26122991147897],[88.18337554463321,22.18699317428122],[88.20784254931439,22.026146910352765],[88.14514584981887,21.95465968194012],[88.26748087322477,21.72782520716922],[88.4448666571633,21.917541313341246],[89.06877527653333,21.949160664369916],[89.05501258640017,22.12787873540153],[88.85774736115818,22.967853669250132],[88.70941614527854,23.231806512619904],[88.59319787304294,23.616737742534156],[88.70024101852309,24.096527025534417],[88.74152908892258,24.254623780677772],[88.13291234747828,24.510328097692238],[88.0273983897907,24.690420923116406],[88.39440346000838,24.96949606480424],[88.43569153040787,25.200454802752787],[88.90973974610569,25.179833486864524],[88.81187172738098,25.52352208500225],[88.44639584495587,25.595009313414895],[88.09315346487136,25.930449385197317],[88.3515862018163,26.221897316418104],[88.33323594830543,26.496848194928287],[88.40052021117867,26.64394691493123],[88.75987934243346,26.329128159037076],[89.3486166425743,26.01018513996527],[89.72938440292513,26.17103140389372],[89.84254429957558,25.882332981458035],[89.87159886763448,25.47678043565552],[89.97405444973691,25.299437119016453],[90.23401637447442,25.203204311537892],[90.96955570270232,25.172959714901772],[91.35491102643087,25.23344890817401],[92.01704934061524,25.18945676761238],[92.1990226879315,25.12484331116249],[92.4253424812324,25.02998525807648],[92.51556456099425,24.88013702928843],[92.21431456585725,24.508953343299687],[92.07057091335533,24.3769769216148],[91.92376888526826,24.108899815067375],[91.75555822808516,24.1418939204886],[91.4696001108739,24.062158165720646],[91.22645925185469,23.73221711150843],[91.31973970720168,23.277173407574082],[91.54300112491742,22.999473020278803],[91.7586166036703,23.266175372433676],[91.80449223744752,23.51500591748539],[92.1760848710429,23.707471532442515],[92.26477776301218,23.726718093938228],[92.40240466434379,23.266175372433676],[92.50944780982395,22.741019194479232],[92.6057866407561,22.12375447222388],[92.85504425094558,22.06326527895164],[93.1608818094603,22.180119402318468],[93.09665592217222,22.786386089433414],[93.12265211464597,23.006346792241555],[93.1960531286895,23.055837950373387],[93.3581470347023,23.330788828883566],[93.39025997834635,23.497134110382227],[93.39637672951665,23.926057480858105],[93.25263307701472,24.02091553394412]]],[[[92.87339450445647,12.331378934083835],[92.97432089876632,12.543091110536674],[92.84128156081242,13.391314570740576],[92.69906709610308,12.328629425298733],[92.87339450445647,12.331378934083835]]]]},"properties":{"name":"India"}}
]}